OBJECT_NAME,OBJECT_ID,EPOCH,MEAN_MOTION,ECCENTRICITY,INCLINATION,RA_OF_ASC_NODE,ARG_OF_PERICENTER,MEAN_ANOMALY,EPHEMERIS_TYPE,CLASSIFICATION_TYPE,NORAD_CAT_ID,ELEMENT_SET_NO,REV_AT_EPOCH,BSTAR,MEAN_MOTION_DOT,MEAN_MOTION_DDOT
ONEWEB-0166,2021-025Z,2026-07-11T19:53:00.392928,13.13469306,.00019935,87.8988,315.3004,97.4602,262.6754,0,U,48065,999,25688,-.10134935E-2,-.357E-5,0
ONEWEB-0151,2021-025AA,2026-07-11T19:55:25.844736,13.13470002,.00019348,87.8985,315.3150,103.5657,256.5687,0,U,48066,999,25682,-.84429275E-3,-.296E-5,0
ONEWEB-0170,2021-025AB,2026-07-11T20:07:37.047936,13.13469587,.00017565,87.8980,315.3152,115.3362,244.7949,0,U,48067,999,25678,-.68958577E-3,-.239E-5,0
ONEWEB-0168,2021-025AC,2026-07-11T19:45:41.075712,13.13469075,.00020371,87.8984,315.3192,99.2675,260.8684,0,U,48068,999,25679,-.66733494E-3,-.231E-5,0
ONEWEB-0173,2021-025AD,2026-07-11T19:33:30.166272,13.13468635,.0002315,87.8978,315.3214,100.9673,259.1717,0,U,48069,999,25703,-.39218156E-3,-.13E-5,0
ONEWEB-0171,2021-025AE,2026-07-11T20:27:07.780896,13.13470254,.00019645,87.8975,315.3210,101.2288,258.9062,0,U,48070,999,25685,.30453296E-3,.124E-5,0
ONEWEB-0172,2021-025AF,2026-07-11T19:57:52.304832,13.13470486,.00020618,87.8987,315.3169,102.7342,257.4018,0,U,48071,999,25774,-.91825023E-3,-.323E-5,0
ONEWEB-0174,2021-025AG,2026-07-11T19:31:04.194336,13.13468434,.00020033,87.8986,315.3195,94.7885,265.3472,0,U,48072,999,25706,-.26021134E-3,-.82E-6,0
ONEWEB-0175,2021-025AH,2026-07-11T20:14:56.426496,13.13469977,.00020447,87.8983,315.2986,108.7473,251.3878,0,U,48073,999,25672,-.43490806E-3,-.146E-5,0
ONEWEB-0177,2021-025AJ,2026-07-11T20:32:00.609504,13.13471064,.000206,87.8982,315.3141,95.3656,264.7708,0,U,48074,999,25691,.34338513E-3,.138E-5,0
ONEWEB-0178,2021-025AK,2026-07-11T19:09:20.100384,13.13470044,.00021597,87.8973,315.3354,103.7249,256.4121,0,U,48075,999,25695,.7118366E-3,.273E-5,0
ONEWEB-0108,2021-025AL,2026-07-11T20:00:18.794304,13.13469376,.00017346,87.8987,315.3109,95.5282,264.6045,0,U,48076,999,25688,-.85992166E-3,-.301E-5,0
ONEWEB-0169,2021-025AM,2026-07-11T20:46:38.382528,13.13469321,.00019941,87.8979,315.3104,94.2011,265.9346,0,U,48077,999,25554,.79934256E-3,.305E-5,0
ONEWEB-0176,2021-031A,2026-07-12T05:19:18.441408,13.14502958,.0002163,87.8967,284.7113,102.0496,258.0877,0,U,48210,999,25160,.26654E-4,.23E-6,0
ONEWEB-0184,2021-031B,2026-07-11T19:32:26.378880,13.14502752,.00024656,87.8976,284.7946,118.4801,241.6577,0,U,48211,999,25152,-.31433674E-3,-.104E-5,0
ONEWEB-0179,2021-031C,2026-07-12T05:23:38.805216,14.25565472,.0221217,87.9019,280.9445,175.0241,185.3228,0,U,48212,999,25261,-.25856E-3,-.769E-5,0
ONEWEB-0180,2021-031D,2026-07-12T04:45:03.674880,13.14502970,.0002529,87.8987,284.7146,102.0629,258.0784,0,U,48213,999,25150,-.44542E-3,-.152E-5,0
ONEWEB-0218,2021-031E,2026-07-12T05:17:01.480128,13.14503818,.0002757,87.8978,284.7101,112.5752,247.5670,0,U,48214,999,25166,-.2168E-3,-.68E-6,0
ONEWEB-0209,2021-031F,2026-07-11T18:03:23.566176,13.14503466,.0002275,87.8968,284.8177,96.5306,263.6083,0,U,48215,999,25160,-.4988083E-3,-.172E-5,0
ONEWEB-0198,2021-031G,2026-07-11T19:30:21.656160,13.14502934,.00025006,87.8961,284.8027,101.1601,258.9810,0,U,48216,999,25172,-.33783504E-3,-.112E-5,0
ONEWEB-0189,2021-031H,2026-07-11T17:58:49.051776,13.14502069,.00024038,87.8972,284.8047,101.9100,258.2299,0,U,48217,999,25145,-.6741106E-3,-.237E-5,0
ONEWEB-0196,2021-031J,2026-07-11T19:16:27.558336,13.14502362,.00021269,87.8972,284.8024,99.2157,260.9213,0,U,48218,999,25146,-.13266077E-4,.8E-7,0
ONEWEB-0183,2021-031K,2026-07-12T05:37:34.664736,13.14502579,.0001998,87.8965,284.7144,92.3572,267.7786,0,U,48219,999,25161,.56309E-3,.222E-5,0
ONEWEB-0185,2021-031L,2026-07-11T19:17:34.854432,13.14503384,.00022782,87.8976,284.7954,89.4532,270.6859,0,U,48220,999,25148,-.85026701E-4,-.19E-6,0
ONEWEB-0187,2021-031M,2026-07-11T18:48:51.160608,13.14502652,.00021388,87.8966,284.8142,101.7933,258.3437,0,U,48221,999,25149,.47448167E-3,.189E-5,0
ONEWEB-0192,2021-031N,2026-07-12T05:03:19.577664,13.14503212,.0002098,87.8966,284.7183,101.5408,258.5957,0,U,48222,999,25146,-.55768E-3,-.194E-5,0
ONEWEB-0219,2021-031P,2026-07-12T04:33:37.364256,13.14503428,.0002208,87.8979,284.7149,96.0319,264.1062,0,U,48223,999,25166,-.12998E-3,-.35E-6,0
ONEWEB-0202,2021-031Q,2026-07-11T18:58:12.296640,13.14498033,.00028068,87.8984,284.8081,109.2422,250.9011,0,U,48224,999,25159,-.9109794E-3,-.325E-5,0
ONEWEB-0204,2021-031R,2026-07-11T17:57:39.465216,13.14499305,.00018645,87.8973,284.8101,87.5526,272.5818,0,U,48225,999,25148,-.66228936E-3,-.233E-5,0
ONEWEB-0205,2021-031S,2026-07-11T19:11:53.294496,13.14502414,.00022655,87.8974,284.7955,99.4917,260.6469,0,U,48226,999,25150,.82797416E-4,.43E-6,0
ONEWEB-0206,2021-031T,2026-07-12T05:30:43.145856,13.14502295,.0001927,87.8970,284.7095,101.5031,258.6315,0,U,48227,999,25151,.33752E-3,.138E-5,0
ONEWEB-0182,2021-031U,2026-07-12T05:23:51.774720,13.14504244,.0001917,87.8961,284.7181,95.8392,264.2956,0,U,48228,999,25172,-.3498E-4,0,0
ONEWEB-0186,2021-031V,2026-07-11T18:42:12.224160,13.14502661,.00021608,87.8979,284.7990,97.9339,262.2036,0,U,48229,999,25161,.45202192E-3,.18E-5,0
ONEWEB-0181,2021-031W,2026-07-12T05:07:51.854304,13.14502687,.000228,87.8958,284.7372,99.3882,260.7506,0,U,48230,999,25152,-.81693E-3,-.29E-5,0
ONEWEB-0188,2021-031X,2026-07-11T19:05:01.977792,13.14502215,.00020438,87.8966,284.8197,100.3508,259.7852,0,U,48231,999,25137,.24703324E-3,.104E-5,0
ONEWEB-0220,2021-031Y,2026-07-12T05:10:09.200064,13.14502670,.000238,87.8978,284.7140,95.6479,264.4923,0,U,48232,999,25169,-.88615E-3,-.316E-5,0
ONEWEB-0165,2021-031Z,2026-07-11T18:53:37.771008,13.14502546,.00024545,87.8971,284.8099,102.6803,257.4602,0,U,48233,999,25159,.243385E-3,.103E-5,0
ONEWEB-0199,2021-031AA,2026-07-11T18:30:47.288160,13.14501396,.00019144,87.8975,284.8003,99.9221,260.2125,0,U,48234,999,25149,.32020384E-4,.25E-6,0
ONEWEB-0203,2021-031AB,2026-07-12T05:14:44.027232,13.14501336,.000197,87.8969,284.7141,105.4962,254.6385,0,U,48235,999,25156,-.36391E-3,-.122E-5,0
ONEWEB-0197,2021-031AC,2026-07-11T19:29:56.813568,13.14501622,.00020301,87.8966,284.7793,91.4968,268.6395,0,U,48236,999,25142,-.59530713E-3,-.208E-5,0
ONEWEB-0194,2021-031AD,2026-07-11T19:00:27.944640,13.14503902,.00018413,87.8968,284.8068,105.9202,254.2130,0,U,48237,999,25159,.59301821E-3,.233E-5,0
ONEWEB-0193,2021-031AE,2026-07-11T19:23:18.396384,13.14501820,.00017811,87.8972,284.7934,110.6357,249.4964,0,U,48238,999,25154,-.41492382E-3,-.141E-5,0
ONEWEB-0191,2021-031AF,2026-07-11T17:49:40.489536,13.14506060,.00020014,87.8979,284.8070,94.7086,265.4272,0,U,48239,999,25139,-.68905873E-3,-.243E-5,0
ONEWEB-0195,2021-031AG,2026-07-11T19:06:10.793664,13.14502878,.00024555,87.8976,284.7968,100.4030,259.7376,0,U,48240,999,25138,.17647827E-3,.78E-6,0
ONEWEB-0201,2021-031AH,2026-07-11T16:59:38.143968,13.14502080,.00021128,87.8971,284.8284,91.0441,269.0930,0,U,48241,999,25160,.47215844E-3,.188E-5,0
ONEWEB-0207,2021-031AJ,2026-07-12T05:18:08.375328,13.14502271,.0001988,87.8970,284.7128,92.0874,268.0483,0,U,48242,999,25158,-.10159E-2,-.364E-5,0
ONEWEB-0208,2021-031AK,2026-07-11T17:54:14.463072,13.14501763,.00024164,87.8970,284.8129,103.9196,256.2203,0,U,48243,999,25153,-.77510874E-3,-.275E-5,0
ONEWEB-0200,2021-031AL,2026-07-11T18:51:20.574720,13.14502180,.00021097,87.8982,284.7934,98.1067,262.0302,0,U,48244,999,25146,.54345886E-3,.214E-5,0
ONEWEB-0217,2021-031AM,2026-07-11T19:14:10.258368,13.14502592,.00023137,87.8978,284.7950,101.5069,258.6320,0,U,48245,999,25141,.34576542E-4,.26E-6,0
ONEWEB-0211,2021-045A,2026-07-12T03:00:40.125024,13.16197202,.0002593,87.8990,254.1085,107.5390,252.6024,0,U,48767,999,24772,-.33572E-3,-.115E-5,0
ONEWEB-0223,2021-045B,2026-07-11T16:24:34.389504,13.15547086,.0002277,87.8994,254.3115,107.7356,252.4023,0,U,48768,999,24762,-.21388542E-3,-.68E-6,0
ONEWEB-0230,2021-045C,2026-07-12T02:40:38.199936,13.15548439,.0001881,87.8981,254.2382,93.2086,266.9260,0,U,48769,999,24794,-.53805E-4,-.7E-7,0
ONEWEB-0237,2021-045D,2026-07-12T04:14:10.984128,13.15548335,.0002346,87.8986,254.2263,95.6032,264.5366,0,U,48770,999,24767,.85774E-4,.45E-6,0
ONEWEB-0235,2021-045E,2026-07-11T16:40:31.630656,13.15549620,.00020769,87.8992,254.3112,105.8461,254.2899,0,U,48771,999,24760,.36159415E-3,.149E-5,0
ONEWEB-0242,2021-045F,2026-07-12T03:28:33.204000,13.15548427,.0001938,87.8996,254.2180,103.5994,256.5352,0,U,48772,999,24770,.21509E-3,.94E-6,0
ONEWEB-0241,2021-045G,2026-07-12T03:10:16.045824,13.15549095,.000242,87.8972,254.2359,106.4146,253.7250,0,U,48773,999,24761,-.57885E-3,-.205E-5,0
ONEWEB-0243,2021-045H,2026-07-12T03:55:55.342272,13.15550943,.0001807,87.8985,254.2424,110.8361,249.2963,0,U,48774,999,24764,.51599E-3,.207E-5,0
ONEWEB-0222,2021-045J,2026-07-12T03:31:57.756000,13.15546914,.0002189,87.8993,254.2151,103.9434,256.1940,0,U,48775,999,24768,.1717E-3,.77E-6,0
ONEWEB-0244,2021-045K,2026-07-11T17:12:29.412576,13.15547468,.00020611,87.9002,254.2974,98.7944,261.3420,0,U,48776,999,24819,-.17196971E-3,-.52E-6,0
ONEWEB-0247,2021-045L,2026-07-12T02:15:32.215104,13.15548961,.0001989,87.8985,254.2506,122.8434,237.2888,0,U,48777,999,24768,.29544E-3,.124E-5,0
ONEWEB-0245,2021-045M,2026-07-12T02:08:40.648704,13.15550017,.0002113,87.8986,254.2346,102.9163,257.2203,0,U,48778,999,24765,.47625E-3,.192E-5,0
ONEWEB-0229,2021-045N,2026-07-12T03:51:22.139424,13.15547271,.0001917,87.8986,254.2191,98.4844,261.6504,0,U,48779,999,24769,.21559E-3,.94E-6,0
ONEWEB-0228,2021-045P,2026-07-12T02:49:57.182016,13.15549292,.0002108,87.8998,254.2191,100.0737,260.0631,0,U,48780,999,24760,-.21527E-3,-.68E-6,0
ONEWEB-0232,2021-045Q,2026-07-12T02:13:15.545856,13.15547976,.000215,87.8993,254.2255,99.8207,260.3166,0,U,48781,999,24792,.38696E-3,.159E-5,0
ONEWEB-0231,2021-045R,2026-07-11T16:33:41.669568,13.15547722,.00020952,87.8989,254.3169,104.3546,255.7818,0,U,48782,999,24756,.43087858E-3,.175E-5,0
